NORAD_CAT_ID,OBJECT_NAME,OBJECT_TYPE,EPOCH,MEAN_MOTION,ECCENTRICITY,INCLINATION,RA_OF_ASC_NODE,ARG_OF_PERICENTER,MEAN_ANOMALY,BSTAR,MEAN_MOTION_DOT,MEAN_MOTION_DDOT,TLE_LINE0,TLE_LINE1,TLE_LINE2,SEMIMAJOR_AXIS,PERIOD,APOGEE,PERIGEE,DECAYED
53294.0,STARLINK-4146,PAYLOAD,2022-08-16 22:00:00,15.73191891,0.0002078,53.2185,287.5794,30.5591,343.8199,0.00024069,0.00033282,0.0,0 STARLINK-4146,1 53294U 22086BE  22228.91667824  .00033282  00000-0  24069-3 0  9992,2 53294  53.2185 287.5794 0002078  30.5591 343.8199 15.73191891  4300,6727.918000000002,91.534,351.181,348.385,0.0
53294.0,STARLINK-4146,PAYLOAD,2022-08-17 14:00:01,15.73174215,0.0002472,53.2186,284.2822,32.7847,159.4534,0.00024087,0.00033283,0.0,0 STARLINK-4146,1 53294U 22086BE  22229.58334491  .00033283  00000-0  24087-3 0  9998,2 53294  53.2186 284.2822 0002472  32.7847 159.4534 15.73174215  4410,6727.969,91.535,351.497,348.171,0.0
53294.0,STARLINK-4146,PAYLOAD,2022-08-18 08:00:01,15.73214425,0.0002303,53.2183,280.5701,31.9089,90.3843,0.00016431,0.00022516,0.0,0 STARLINK-4146,1 53294U 22086BE  22230.33334491  .00022516  00000-0  16431-3 0  9994,2 53294  53.2183 280.5701 0002303  31.9089  90.3843 15.73214425  4531,6727.854,91.532,351.26800000000014,348.17,0.0
53294.0,STARLINK-4146,PAYLOAD,2022-08-18 14:00:01,15.73223005,0.0002411,53.2183,279.334,28.6783,70.3302,0.00020516,0.00028299,0.0,0 STARLINK-4146,1 53294U 22086BE  22230.58334491  .00028299  00000-0  20516-3 0  9994,2 53294  53.2183 279.3340 0002411  28.6783  70.3302 15.73223005  1304,6727.83,91.532,351.31699999999995,348.0730000000001,0.0
53294.0,STARLINK-4146,PAYLOAD,2022-08-18 22:00:00,15.73196424,0.0002195,53.2187,277.6824,28.2202,159.7707,0.00040578,0.00056708,0.0,0 STARLINK-4146,1 53294U 22086BE  22230.91667824  .00056708  00000-0  40578-3 0  9996,2 53294  53.2187 277.6824 0002195  28.2202 159.7707 15.73196424  1302,6727.905,91.533,351.247,348.2940000000001,0.0
53294.0,STARLINK-4146,PAYLOAD,2022-08-19 04:00:01,15.73265478,0.0002227,53.2189,276.4451,32.9393,131.8141,-0.00052733,-0.00074195,0.0,0 STARLINK-4146,1 53294U 22086BE  22231.16668981 -.00074195  00000-0 -52733-3 0  9997,2 53294  53.2189 276.4451 0002227  32.9393 131.8141 15.73265478  4667,6727.708000000001,91.529,351.07199999999995,348.075,0.0
53294.0,STARLINK-4146,PAYLOAD,2022-08-19 14:00:01,15.73134319,0.0002514,53.2186,274.3854,27.8256,338.081,0.00053365,0.00074738,0.0,0 STARLINK-4146,1 53294U 22086BE  22231.58334491  .00074738  00000-0  53365-3 0  9992,2 53294  53.2186 274.3854 0002514  27.8256 338.0810 15.73134319  1309,6728.081999999999,91.537,351.639,348.256,0.0
53294.0,STARLINK-4146,PAYLOAD,2022-08-19 22:00:00,15.73179029,0.0002234,53.2186,272.7342,26.8768,67.9007,-0.00010026,-0.00014656,0.0,0 STARLINK-4146,1 53294U 22086BE  22231.91667824 -.00014656  00000-0 -10026-3 0  9990,2 53294  53.2186 272.7342 0002234  26.8768  67.9007 15.73179029  1302,6727.955,91.534,351.3230000000001,348.31699999999995,0.0
53294.0,STARLINK-4146,PAYLOAD,2022-08-20 06:00:00,15.73159447,0.0002234,53.2186,271.0856,24.3497,159.32,-7.0097e-05,-0.00010431,0.0,0 STARLINK-4146,1 53294U 22086BE  22232.25001157 -.00010431  00000-0 -70097-4 0  9991,2 53294  53.2186 271.0856 0002234  24.3497 159.3200 15.73159447  4830,6728.011,91.536,351.379,348.37300000000016,0.0
53294.0,STARLINK-4146,PAYLOAD,2022-08-20 14:00:01,15.73140625,0.0002443,53.2183,269.4378,21.554,250.9992,0.00059891,0.0008407,0.0,0 STARLINK-4146,1 53294U 22086BE  22232.58334491  .00084070  00000-0  59891-3 0  9993,2 53294  53.2183 269.4378 0002443  21.5540 250.9992 15.73140625  1300,6728.064,91.537,351.5730000000001,348.286,0.0
53294.0,STARLINK-4146,PAYLOAD,2022-08-20 22:00:00,15.73240501,0.0002018,53.2185,267.7861,19.8768,341.6475,-0.00023266,-0.00033204,0.0,0 STARLINK-4146,1 53294U 22086BE  22232.91667824 -.00033204  00000-0 -23266-3 0  9991,2 53294  53.2185 267.7861 0002018  19.8768 341.6475 15.73240501  4930,6727.78,91.531,351.00199999999984,348.287,0.0
53294.0,STARLINK-4146,PAYLOAD,2022-08-21 14:00:01,15.73155626,0.0002414,53.2184,264.4892,21.308000000000003,158.1201,0.00032693,0.00045427,0.0,0 STARLINK-4146,1 53294U 22086BE  22233.58334491  .00045427  00000-0  32693-3 0  9998,2 53294  53.2184 264.4892 0002414  21.3080 158.1201 15.73155626  1301,6728.022,91.536,351.511,348.26300000000015,0.0
53294.0,STARLINK-4146,PAYLOAD,2022-08-21 22:00:00,15.73156738,0.0002221,53.2184,262.8381,25.3097,243.0167,0.00054722,0.00076744,0.0,0 STARLINK-4146,1 53294U 22086BE  22233.91667824  .00076744  00000-0  54722-3 0  9997,2 53294  53.2184 262.8381 0002221  25.3097 243.0167 15.73156738  1304,6728.019,91.536,351.37800000000016,348.389,0.0
53294.0,STARLINK-4146,PAYLOAD,2022-08-22 06:00:00,15.73226367,0.0002308,53.2182,261.1898,25.8286,331.401,2.5722e-06,-2.61e-06,0.0,0 STARLINK-4146,1 53294U 22086BE  22234.25001157 -.00000261  00000-0  25722-5 0  9998,2 53294  53.2182 261.1898 0002308  25.8286 331.4010 15.73226367  5149,6727.82,91.532,351.23800000000006,348.13199999999995,0.0
53294.0,STARLINK-4146,PAYLOAD,2022-08-22 12:00:00,15.73222568,0.000243,53.218,259.9541,22.6264,311.3142,-0.00013396,-0.000194,0.0,0 STARLINK-4146,1 53294U 22086BE  22234.50001157 -.00019400  00000-0 -13396-3 0  9994,2 53294  53.2180 259.9541 0002430  22.6264 311.3142 15.73222568  1300,6727.831,91.532,351.331,348.061,0.0
53294.0,STARLINK-4146,PAYLOAD,2022-08-22 22:00:00,15.73162374,0.0002126,53.2179,257.8899,20.4035,154.7249,0.00049566,0.0006941,0.0,0 STARLINK-4146,1 53294U 22086BE  22234.91667824  .00069410  00000-0  49566-3 0  9990,2 53294  53.2179 257.8899 0002126  20.4035 154.7249 15.73162374  5258,6728.002,91.535,351.298,348.43699999999984,0.0
53294.0,STARLINK-4146,PAYLOAD,2022-08-23 06:00:00,15.73228946,0.0002254,53.2181,256.2418,19.7406,244.2987,-0.00069877,-0.00097692,0.0,0 STARLINK-4146,1 53294U 22086BE  22235.25001157 -.00097692  00000-0 -69877-3 0  9991,2 53294  53.2181 256.2418 0002254  19.7406 244.2987 15.73228946  5304,6727.813,91.531,351.194,348.161,0.0
53294.0,STARLINK-4146,PAYLOAD,2022-08-23 12:00:00,15.73134679,0.0002423,53.2181,255.0058,15.7202,225.0249,0.00056373,0.00079027,0.0,0 STARLINK-4146,1 53294U 22086BE  22235.50001157  .00079027  00000-0  56373-3 0  9996,2 53294  53.2181 255.0058 0002423  15.7202 225.0249 15.73134679  5340,6728.081,91.537,351.577,348.316,0.0
53294.0,STARLINK-4146,PAYLOAD,2022-08-23 14:00:01,15.73160967,0.0002428,53.2177,254.5932,15.1093,337.8475,0.00031034,0.00043088,0.0,0 STARLINK-4146,1 53294U 22086BE  22235.58334491  .00043088  00000-0  31034-3 0  9999,2 53294  53.2177 254.5932 0002428  15.1093 337.8475 15.73160967  1301,6728.005999999999,91.535,351.505,348.23800000000006,0.0
53294.0,STARLINK-4146,PAYLOAD,2022-08-23 20:00:01,15.73166376,0.000221,53.2179,253.3546,17.8112,311.8173,0.00030394,0.00042191,0.0,0 STARLINK-4146,1 53294U 22086BE  22235.83334491  .00042191  00000-0  30394-3 0  9999,2 53294  53.2179 253.3546 0002210  17.8112 311.8173 15.73166376  5391,6727.991,91.535,351.343,348.369,0.0
53294.0,STARLINK-4146,PAYLOAD,2022-08-23 22:00:01,15.73158547,0.0002169,53.2177,252.9419,18.1399,63.7829,0.00051464,0.00072103,0.0,0 STARLINK-4146,1 53294U 22086BE  22235.91668981  .00072103  00000-0  51464-3 0  9999,2 53294  53.2177 252.9419 0002169  18.1399  63.7829 15.73158547  1306,6728.013000000001,91.536,351.338,348.4190000000001,0.0
53294.0,STARLINK-4146,PAYLOAD,2022-08-24 14:00:01,15.73220774,0.0002447,53.2169,249.645,17.8888,241.8122,0.00019789,0.00027269,0.0,0 STARLINK-4146,1 53294U 22086BE  22236.58334491  .00027269  00000-0  19789-3 0  9996,2 53294  53.2169 249.6450 0002447  17.8888 241.8122 15.73220774  1300,6727.8359999999975,91.532,351.347,348.055,0.0
53294.0,STARLINK-4146,PAYLOAD,2022-08-24 22:00:00,15.73235512,0.000226,53.2172,247.9935,22.5763,326.0912,-2.5688e-05,-4.231e-05,0.0,0 STARLINK-4146,1 53294U 22086BE  22236.91667824 -.00004231  00000-0 -25688-4 0  9994,2 53294  53.2172 247.9935 0002260  22.5763 326.0912 15.73235512  5562,6727.794,91.531,351.17900000000014,348.13800000000015,0.0
53294.0,STARLINK-4146,PAYLOAD,2022-08-25 14:00:01,15.73109469,0.000227,53.2169,244.687,16.7277,149.9061,0.00071836,0.00101029,0.0,0 STARLINK-4146,1 53294U 22086BE  22237.58334491  .00101029  00000-0  71836-3 0  9995,2 53294  53.2169 244.6870 0002270  16.7277 149.9061 15.73109469  1302,6728.153,91.538,351.546,348.491,0.0
53294.0,STARLINK-4146,PAYLOAD,2022-08-25 18:00:00,15.73217639,0.0002303,53.2174,243.8704,16.0339,15.0417,8.146399999999999e-05,0.00010836,0.0,0 STARLINK-4146,1 53294U 22086BE  22237.75001157  .00010836  00000-0  81464-4 0  9998,2 53294  53.2174 243.8704 0002303  16.0339  15.0417 15.73217639  5709,6727.845,91.532,351.259,348.16,0.0
53294.0,STARLINK-4146,PAYLOAD,2022-08-25 22:00:00,15.73205645,0.0002251,53.2171,243.045,17.8954,237.6607,0.00040275,0.000563,0.0,0 STARLINK-4146,1 53294U 22086BE  22237.91667824  .00056300  00000-0  40275-3 0  9995,2 53294  53.2171 243.0450 0002251  17.8954 237.6607 15.73205645  1309,6727.879,91.533,351.259,348.23,0.0
53294.0,STARLINK-4146,PAYLOAD,2022-08-26 14:00:01,15.7322468,0.0002578,53.2165,239.7477,21.467,52.0592,-0.00019189,-0.00027498,0.0,0 STARLINK-4146,1 53294U 22086BE  22238.58335648 -.00027498  00000-0 -19189-3 0  9993,2 53294  53.2165 239.7477 0002578  21.4670  52.0592 15.73224680  1303,6727.825,91.532,351.4240000000001,347.955,0.0
53294.0,STARLINK-4146,PAYLOAD,2022-08-26 22:00:00,15.73167598,0.0002263,53.2168,238.0963,21.7688,140.6488,0.00023232,0.00032065,0.0,0 STARLINK-4146,1 53294U 22086BE  22238.91667824  .00032065  00000-0  23232-3 0  9992,2 53294  53.2168 238.0963 0002263  21.7688 140.6488 15.73167598  1303,6727.988,91.535,351.375,348.33,0.0
53294.0,STARLINK-4146,PAYLOAD,2022-08-27 14:00:01,15.73218911,0.0002545,53.217,234.7992,19.9033,320.3253,6.3178e-05,8.261e-05,0.0,0 STARLINK-4146,1 53294U 22086BE  22239.58334491  .00008261  00000-0  63178-4 0  9992,2 53294  53.2170 234.7992 0002545  19.9033 320.3253 15.73218911  1300,6727.840999999999,91.532,351.418,347.994,0.0
